{
  "type": "FeatureCollection",
  "features": [
    {
      "type": "Feature",
      "properties": {
        "norad_id": 35432,
        "name": "COSMOS 2251 DEB",
        "group": "cosmos-2251-debris",
        "lat": 58.83770352921163,
        "lon": 41.630967784099795,
        "alt_km": 489.1766885957468,
        "timestamp": "2025-12-13T18:50:04.826451+00:00",
        "meta_object_name": "COSMOS 2251 DEB",
        "meta_object_id": "1993-036AKA",
        "meta_epoch": "2025-12-12T01:34:13.254816",
        "meta_mean_motion": 15.22745879,
        "meta_eccentricity": 0.00122124,
        "meta_inclination": 74.023,
        "meta_ra_of_asc_node": 16.9721,
        "meta_arg_of_pericenter": 343.1165,
        "meta_mean_anomaly": 16.9626,
        "meta_ephemeris_type": 0,
        "meta_classification_type": "U",
        "meta_norad_cat_id": 35432,
        "meta_element_set_no": 999,
        "meta_rev_at_epoch": 87493,
        "meta_bstar": 0.0062046454,
        "meta_mean_motion_dot": 0.00148065,
        "meta_mean_motion_ddot": 0,
        "tle_line1": "1 35432U 93036AKA 25346.06543119  .00148065  00000+0  62046-2 0  9990",
        "tle_line2": "2 35432  74.0230  16.9721 0012212 343.1165  16.9626 15.22745879874933"
      },
      "geometry": {
        "type": "Point",
        "coordinates": [
          41.630967784099795,
          58.83770352921163
        ]
      }
    },
    {
      "type": "Feature",
      "properties": {
        "norad_id": 35433,
        "name": "COSMOS 2251 DEB",
        "group": "cosmos-2251-debris",
        "lat": -73.93652498597842,
        "lon": -119.61253678336759,
        "alt_km": 792.7025449878547,
        "timestamp": "2025-12-13T18:50:04.826462+00:00",
        "meta_object_name": "COSMOS 2251 DEB",
        "meta_object_id": "1993-036AKB",
        "meta_epoch": "2025-12-10T18:27:52.031808",
        "meta_mean_motion": 14.34742553,
        "meta_eccentricity": 0.00254013,
        "meta_inclination": 74.0339,
        "meta_ra_of_asc_node": 342.0559,
        "meta_arg_of_pericenter": 37.4572,
        "meta_mean_anomaly": 142.4072,
        "meta_ephemeris_type": 0,
        "meta_classification_type": "U",
        "meta_norad_cat_id": 35433,
        "meta_element_set_no": 999,
        "meta_rev_at_epoch": 86552,
        "meta_bstar": 0.00041847558,
        "meta_mean_motion_dot": 1.164e-05,
        "meta_mean_motion_ddot": 0,
        "tle_line1": "1 35433U 93036AKB 25344.76935222  .00001164  00000+0  41848-3 0  9992",
        "tle_line2": "2 35433  74.0339 342.0559 0025401  37.4572 142.4072 14.34742553865528"
      },
      "geometry": {
        "type": "Point",
        "coordinates": [
          -119.61253678336759,
          -73.93652498597842
        ]
      }
    },
    {
      "type": "Feature",
      "properties": {
        "norad_id": 35434,
        "name": "COSMOS 2251 DEB",
        "group": "cosmos-2251-debris",
        "lat": 29.83687270974634,
        "lon": 22.292904072291883,
        "alt_km": 847.2571586422209,
        "timestamp": "2025-12-13T18:50:04.826473+00:00",
        "meta_object_name": "COSMOS 2251 DEB",
        "meta_object_id": "1993-036AKC",
        "meta_epoch": "2025-12-12T23:36:24.163200",
        "meta_mean_motion": 14.25688916,
        "meta_eccentricity": 0.00874872,
        "meta_inclination": 74.0404,
        "meta_ra_of_asc_node": 213.1853,
        "meta_arg_of_pericenter": 283.8698,
        "meta_mean_anomaly": 75.2728,
        "meta_ephemeris_type": 0,
        "meta_classification_type": "U",
        "meta_norad_cat_id": 35434,
        "meta_element_set_no": 999,
        "meta_rev_at_epoch": 86121,
        "meta_bstar": 0.00087030714,
        "meta_mean_motion_dot": 2.123e-05,
        "meta_mean_motion_ddot": 0,
        "tle_line1": "1 35434U 93036AKC 25346.98361300  .00002123  00000+0  87031-3 0  9999",
        "tle_line2": "2 35434  74.0404 213.1853 0087487 283.8698  75.2728 14.25688916861210"
      },
      "geometry": {
        "type": "Point",
        "coordinates": [
          22.292904072291883,
          29.83687270974634
        ]
      }
    },
    {
      "type": "Feature",
      "properties": {
        "norad_id": 35435,
        "name": "COSMOS 2251 DEB",
        "group": "cosmos-2251-debris",
        "lat": -0.8511254021240389,
        "lon": -77.7457483016136,
        "alt_km": 631.3482799259646,
        "timestamp": "2025-12-13T18:50:04.826484+00:00",
        "meta_object_name": "COSMOS 2251 DEB",
        "meta_object_id": "1993-036AKD",
        "meta_epoch": "2025-12-12T14:28:49.329408",
        "meta_mean_motion": 14.7846616,
        "meta_eccentricity": 0.00079831,
        "meta_inclination": 74.0098,
        "meta_ra_of_asc_node": 104.3344,
        "meta_arg_of_pericenter": 198.3859,
        "meta_mean_anomaly": 176.7731,
        "meta_ephemeris_type": 0,
        "meta_classification_type": "U",
        "meta_norad_cat_id": 35435,
        "meta_element_set_no": 999,
        "meta_rev_at_epoch": 87537,
        "meta_bstar": 0.0033882672,
        "meta_mean_motion_dot": 0.00024794,
        "meta_mean_motion_ddot": 0,
        "tle_line1": "1 35435U 93036AKD 25346.60334872  .00024794  00000+0  33883-2 0  9996",
        "tle_line2": "2 35435  74.0098 104.3344 0007983 198.3859 176.7731 14.78466160875374"
      },
      "geometry": {
        "type": "Point",
        "coordinates": [
          -77.7457483016136,
          -0.8511254021240389
        ]
      }
    },
    {
      "type": "Feature",
      "properties": {
        "norad_id": 35439,
        "name": "COSMOS 2251 DEB",
        "group": "cosmos-2251-debris",
        "lat": 31.830077099297252,
        "lon": -57.29518646831478,
        "alt_km": 1076.2883186139989,
        "timestamp": "2025-12-13T18:50:04.826494+00:00",
        "meta_object_name": "COSMOS 2251 DEB",
        "meta_object_id": "1993-036AKH",
        "meta_epoch": "2025-12-11T04:55:48.885888",
        "meta_mean_motion": 13.92796753,
        "meta_eccentricity": 0.02419274,
        "meta_inclination": 74.0198,
        "meta_ra_of_asc_node": 137.3683,
        "meta_arg_of_pericenter": 307.011,
        "meta_mean_anomaly": 232.6694,
        "meta_ephemeris_type": 0,
        "meta_classification_type": "U",
        "meta_norad_cat_id": 35439,
        "meta_element_set_no": 999,
        "meta_rev_at_epoch": 83939,
        "meta_bstar": 0.0020869419,
        "meta_mean_motion_dot": 3.412e-05,
        "meta_mean_motion_ddot": 0,
        "tle_line1": "1 35439U 93036AKH 25345.20542692  .00003412  00000+0  20869-2 0  9990",
        "tle_line2": "2 35439  74.0198 137.3683 0241927 307.0110 232.6694 13.92796753839399"
      },
      "geometry": {
        "type": "Point",
        "coordinates": [
          -57.29518646831478,
          31.830077099297252
        ]
      }
    },
    {
      "type": "Feature",
      "properties": {
        "norad_id": 35440,
        "name": "COSMOS 2251 DEB",
        "group": "cosmos-2251-debris",
        "lat": 33.59901235876468,
        "lon": 14.624641326100726,
        "alt_km": 707.7153761489544,
        "timestamp": "2025-12-13T18:50:04.826505+00:00",
        "meta_object_name": "COSMOS 2251 DEB",
        "meta_object_id": "1993-036AKJ",
        "meta_epoch": "2025-12-10T08:26:45.842208",
        "meta_mean_motion": 14.68793955,
        "meta_eccentricity": 0.00692048,
        "meta_inclination": 74.0146,
        "meta_ra_of_asc_node": 212.2531,
        "meta_arg_of_pericenter": 353.6751,
        "meta_mean_anomaly": 6.3537,
        "meta_ephemeris_type": 0,
        "meta_classification_type": "U",
        "meta_norad_cat_id": 35440,
        "meta_element_set_no": 999,
        "meta_rev_at_epoch": 68730,
        "meta_bstar": 0.0006737672,
        "meta_mean_motion_dot": 4.046e-05,
        "meta_mean_motion_ddot": 0,
        "tle_line1": "1 35440U 93036AKJ 25344.35191947  .00004046  00000+0  67377-3 0  9990",
        "tle_line2": "2 35440  74.0146 212.2531 0069204 353.6751   6.3537 14.68793955687302"
      },
      "geometry": {
        "type": "Point",
        "coordinates": [
          14.624641326100726,
          33.59901235876468
        ]
      }
    },
    {
      "type": "Feature",
      "properties": {
        "norad_id": 35441,
        "name": "COSMOS 2251 DEB",
        "group": "cosmos-2251-debris",
        "lat": 67.87195800097734,
        "lon": -19.511588180152646,
        "alt_km": 689.8905544968875,
        "timestamp": "2025-12-13T18:50:04.826515+00:00",
        "meta_object_name": "COSMOS 2251 DEB",
        "meta_object_id": "1993-036AKK",
        "meta_epoch": "2025-12-13T05:21:40.293792",
        "meta_mean_motion": 14.62613574,
        "meta_eccentricity": 0.00367065,
        "meta_inclination": 74.1348,
        "meta_ra_of_asc_node": 297.1796,
        "meta_arg_of_pericenter": 193.7618,
        "meta_mean_anomaly": 166.2553,
        "meta_ephemeris_type": 0,
        "meta_classification_type": "U",
        "meta_norad_cat_id": 35441,
        "meta_element_set_no": 999,
        "meta_rev_at_epoch": 87437,
        "meta_bstar": 0.0029103823,
        "meta_mean_motion_dot": 0.00014939,
        "meta_mean_motion_ddot": 0,
        "tle_line1": "1 35441U 93036AKK 25347.22338303  .00014939  00000+0  29104-2 0  9996",
        "tle_line2": "2 35441  74.1348 297.1796 0036706 193.7618 166.2553 14.62613574874370"
      },
      "geometry": {
        "type": "Point",
        "coordinates": [
          -19.511588180152646,
          67.87195800097734
        ]
      }
    }
  ]
}